*******************************************************************************
Ephemeris / WWW_USER Mon Mar 10 07:29:57 2025 Pasadena, USA      / Horizons    
*******************************************************************************
Target body name: (2017 UX51)                     {source: JPL#22}
Center body name: Earth (399)                     {source: DE441}
Center-site name: Mauna Kea
*******************************************************************************
Start time      : A.D. 2018-Nov-29 03:51:00.0000 UT      
Stop  time      : A.D. 2018-Nov-29 16:29:00.0000 UT      
Step-size       : 1 minutes
*******************************************************************************
Target pole/equ : undefined
Target radii    : undefined                                                    
Center geodetic : 204.5278, 19.8260847, 4.21024   {E-lon(deg),Lat(deg),Alt(km)}
Center cylindric: 204.5278, 6006.35451, 2151.0229 {E-lon(deg),Dxy(km),Dz(km)}
Center pole/equ : ITRF93                          {East-longitude positive}
Center radii    : 6378.137, 6378.137, 6356.752 km {Equator_a, b, pole_c}       
Target primary  : Sun
Vis. interferer : MOON (R_eq= 1737.400) km        {source: DE441}
Rel. light bend : Sun                             {source: DE441}
Rel. lght bnd GM: 1.3271E+11 km^3/s^2                                          
Small-body perts: Yes                             {source: SB441-N16}
Atmos refraction: NO (AIRLESS)
RA format       : HMS
Time format     : CAL 
Calendar mode   : Mixed Julian/Gregorian
RTS-only print  : NO       
EOP file        : eop.250307.p250603                                           
EOP coverage    : DATA-BASED 1962-JAN-20 TO 2025-MAR-07. PREDICTS-> 2025-JUN-02
Units conversion: 1 au= 149597870.700 km, c= 299792.458 km/s, 1 day= 86400.0 s 
Table cut-offs 1: Elevation (-90.0deg=NO ),Airmass (>38.000=NO), Daylight (YES)
Table cut-offs 2: Solar elongation (  0.0,180.0=NO ),Local Hour Angle( 0.0=NO )
Table cut-offs 3: RA/DEC angular rate (     0.0=NO )                           
*******************************************************************************
Initial IAU76/J2000 heliocentric ecliptic osculating elements (au, days, deg.):
  EPOCH=  2458433.5 ! 2018-Nov-11.00 (TDB)         Residual RMS= .12444        
   EC= .7474905367293002   QR= 7.612253692784782   TP= 2459819.8104231078      
   OM= 217.7952286585891   W=  255.0338939179157   IN= 90.52400691057457       
  Equivalent ICRF heliocentric cartesian coordinates (au, au/d):
   X= 8.209785034050050E+00  Y= 6.297741083246843E+00  Z= 1.446459094674425E+00
  VX=-3.080259200599625E-03 VY=-2.498125597102637E-05 VZ=-6.110805734701701E-03
Asteroid physical parameters (km, seconds, rotational period in hours):        
   GM= n.a.                RAD= n.a.               ROTPER= n.a.                
   H= 11.                  G= .150                 B-V= n.a.                   
                           ALBEDO= n.a.            STYP= n.a.                  
*******************************************************************************
 Date__(UT)__HR:MN     R.A._________(ICRF)_________DEC
******************************************************
$$SOE
 2018-Nov-29 14:06  m  02 20 29.365630 +05 50 36.14781
 2018-Nov-29 14:07  m  02 20 29.353041 +05 50 36.00579
 2018-Nov-29 14:08  m  02 20 29.340453 +05 50 35.86377
 2018-Nov-29 14:09  m  02 20 29.327866 +05 50 35.72175
 2018-Nov-29 14:10  m  02 20 29.315281 +05 50 35.57974
 2018-Nov-29 14:11  m  02 20 29.302696 +05 50 35.43772
 2018-Nov-29 14:12  m  02 20 29.290113 +05 50 35.29571
 2018-Nov-29 14:13  m  02 20 29.277531 +05 50 35.15369
 2018-Nov-29 14:14  m  02 20 29.264950 +05 50 35.01168
 2018-Nov-29 14:15  m  02 20 29.252371 +05 50 34.86967
 2018-Nov-29 14:16  m  02 20 29.239793 +05 50 34.72766
 2018-Nov-29 14:17  m  02 20 29.227216 +05 50 34.58565
 2018-Nov-29 14:18  m  02 20 29.214640 +05 50 34.44364
 2018-Nov-29 14:19  m  02 20 29.202065 +05 50 34.30163
 2018-Nov-29 14:20  m  02 20 29.189492 +05 50 34.15963
 2018-Nov-29 14:21  m  02 20 29.176920 +05 50 34.01762
 2018-Nov-29 14:22  m  02 20 29.164349 +05 50 33.87562
 2018-Nov-29 14:23  m  02 20 29.151779 +05 50 33.73361
 2018-Nov-29 14:24  m  02 20 29.139211 +05 50 33.59161
 2018-Nov-29 14:25  m  02 20 29.126643 +05 50 33.44961
 2018-Nov-29 14:26  m  02 20 29.114077 +05 50 33.30761
 2018-Nov-29 14:27  m  02 20 29.101513 +05 50 33.16561
 2018-Nov-29 14:28  m  02 20 29.088949 +05 50 33.02362
 2018-Nov-29 14:29  m  02 20 29.076387 +05 50 32.88162
 2018-Nov-29 14:30  s  02 20 29.063826 +05 50 32.73963
 2018-Nov-29 14:31  m  02 20 29.051266 +05 50 32.59763
 2018-Nov-29 14:32  m  02 20 29.038707 +05 50 32.45564
 2018-Nov-29 14:33  m  02 20 29.026149 +05 50 32.31365
 2018-Nov-29 14:34  m  02 20 29.013593 +05 50 32.17166
 2018-Nov-29 14:35  m  02 20 29.001038 +05 50 32.02967
 2018-Nov-29 14:36  m  02 20 28.988484 +05 50 31.88768
 2018-Nov-29 14:37  m  02 20 28.975932 +05 50 31.74569
 2018-Nov-29 14:38  m  02 20 28.963380 +05 50 31.60371
 2018-Nov-29 14:39  m  02 20 28.950830 +05 50 31.46173
 2018-Nov-29 14:40  m  02 20 28.938281 +05 50 31.31974
 2018-Nov-29 14:41  m  02 20 28.925733 +05 50 31.17776
 2018-Nov-29 14:42  m  02 20 28.913187 +05 50 31.03578
 2018-Nov-29 14:43  m  02 20 28.900642 +05 50 30.89380
 2018-Nov-29 14:44  m  02 20 28.888097 +05 50 30.75182
 2018-Nov-29 14:45  m  02 20 28.875555 +05 50 30.60985
 2018-Nov-29 14:46  m  02 20 28.863013 +05 50 30.46787
 2018-Nov-29 14:47  m  02 20 28.850472 +05 50 30.32590
 2018-Nov-29 14:48  m  02 20 28.837933 +05 50 30.18393
 2018-Nov-29 14:49  m  02 20 28.825395 +05 50 30.04195
 2018-Nov-29 14:50  m  02 20 28.812858 +05 50 29.89998
 2018-Nov-29 14:51  m  02 20 28.800323 +05 50 29.75801
 2018-Nov-29 14:52  m  02 20 28.787788 +05 50 29.61605
 2018-Nov-29 14:53  m  02 20 28.775255 +05 50 29.47408
 2018-Nov-29 14:54  m  02 20 28.762723 +05 50 29.33212
 2018-Nov-29 14:55  m  02 20 28.750192 +05 50 29.19015
 2018-Nov-29 14:56  m  02 20 28.737662 +05 50 29.04819
 2018-Nov-29 14:57  m  02 20 28.725134 +05 50 28.90623
 2018-Nov-29 14:58  m  02 20 28.712607 +05 50 28.76427
 2018-Nov-29 14:59  m  02 20 28.700081 +05 50 28.62231
 2018-Nov-29 15:00  m  02 20 28.687556 +05 50 28.48036
 2018-Nov-29 15:01  m  02 20 28.675032 +05 50 28.33840
 2018-Nov-29 15:02  m  02 20 28.662510 +05 50 28.19645
 2018-Nov-29 15:03  m  02 20 28.649989 +05 50 28.05450
 2018-Nov-29 15:04  m  02 20 28.637469 +05 50 27.91255
 2018-Nov-29 15:05  m  02 20 28.624950 +05 50 27.77060
 2018-Nov-29 15:06  m  02 20 28.612432 +05 50 27.62865
 2018-Nov-29 15:07  m  02 20 28.599916 +05 50 27.48670
 2018-Nov-29 15:08  m  02 20 28.587400 +05 50 27.34476
 2018-Nov-29 15:09  m  02 20 28.574886 +05 50 27.20281
 2018-Nov-29 15:10  m  02 20 28.562374 +05 50 27.06087
 2018-Nov-29 15:11  m  02 20 28.549862 +05 50 26.91893
 2018-Nov-29 15:12  m  02 20 28.537351 +05 50 26.77699
 2018-Nov-29 15:13  m  02 20 28.524842 +05 50 26.63505
 2018-Nov-29 15:14  m  02 20 28.512334 +05 50 26.49312
 2018-Nov-29 15:15  m  02 20 28.499827 +05 50 26.35118
 2018-Nov-29 15:16  m  02 20 28.487321 +05 50 26.20925
 2018-Nov-29 15:17  m  02 20 28.474816 +05 50 26.06732
 2018-Nov-29 15:18  m  02 20 28.462313 +05 50 25.92539
 2018-Nov-29 15:19  m  02 20 28.449811 +05 50 25.78346
 2018-Nov-29 15:20  m  02 20 28.437310 +05 50 25.64153
 2018-Nov-29 15:21  m  02 20 28.424810 +05 50 25.49960
 2018-Nov-29 15:22 Am  02 20 28.412311 +05 50 25.35768
 2018-Nov-29 15:23 Am  02 20 28.399813 +05 50 25.21576
 2018-Nov-29 15:24 Am  02 20 28.387317 +05 50 25.07384
 2018-Nov-29 15:25 Am  02 20 28.374822 +05 50 24.93192
 2018-Nov-29 15:26 Am  02 20 28.362328 +05 50 24.79000
 2018-Nov-29 15:27 Am  02 20 28.349835 +05 50 24.64808
 2018-Nov-29 15:28 Am  02 20 28.337343 +05 50 24.50617
 2018-Nov-29 15:29 Am  02 20 28.324852 +05 50 24.36426
 2018-Nov-29 15:30 Am  02 20 28.312363 +05 50 24.22234
 2018-Nov-29 15:31 Am  02 20 28.299875 +05 50 24.08043
 2018-Nov-29 15:32 Am  02 20 28.287387 +05 50 23.93853
 2018-Nov-29 15:33 Am  02 20 28.274901 +05 50 23.79662
 2018-Nov-29 15:34 Am  02 20 28.262417 +05 50 23.65471
 2018-Nov-29 15:35 Am  02 20 28.249933 +05 50 23.51281
 2018-Nov-29 15:36 Am  02 20 28.237450 +05 50 23.37091
 2018-Nov-29 15:37 Am  02 20 28.224969 +05 50 23.22901
 2018-Nov-29 15:38 Am  02 20 28.212489 +05 50 23.08711
 2018-Nov-29 15:39 Am  02 20 28.200010 +05 50 22.94521
 2018-Nov-29 15:40 Am  02 20 28.187532 +05 50 22.80332
 2018-Nov-29 15:41 Am  02 20 28.175055 +05 50 22.66143
 2018-Nov-29 15:42 Am  02 20 28.162579 +05 50 22.51953
 2018-Nov-29 15:43 Am  02 20 28.150105 +05 50 22.37764
 2018-Nov-29 15:44 Am  02 20 28.137631 +05 50 22.23576
 2018-Nov-29 15:45 Am  02 20 28.125159 +05 50 22.09387
 2018-Nov-29 15:46 Am  02 20 28.112688 +05 50 21.95198
 2018-Nov-29 15:47 Am  02 20 28.100218 +05 50 21.81010
 2018-Nov-29 15:48 Am  02 20 28.087749 +05 50 21.66822
 2018-Nov-29 15:49 Nm  02 20 28.075281 +05 50 21.52634
 2018-Nov-29 15:50 Nm  02 20 28.062814 +05 50 21.38446
 2018-Nov-29 15:51 Nm  02 20 28.050349 +05 50 21.24259
 2018-Nov-29 15:52 Nm  02 20 28.037885 +05 50 21.10071
 2018-Nov-29 15:53 Nm  02 20 28.025421 +05 50 20.95884
 2018-Nov-29 15:54 Nm  02 20 28.012959 +05 50 20.81697
 2018-Nov-29 15:55 Nm  02 20 28.000498 +05 50 20.67510
 2018-Nov-29 15:56 Nm  02 20 27.988038 +05 50 20.53323
 2018-Nov-29 15:57 Nm  02 20 27.975579 +05 50 20.39137
 2018-Nov-29 15:58 Nm  02 20 27.963121 +05 50 20.24950
 2018-Nov-29 15:59 Nm  02 20 27.950665 +05 50 20.10764
 2018-Nov-29 16:00 Nm  02 20 27.938209 +05 50 19.96578
 2018-Nov-29 16:01 Nm  02 20 27.925755 +05 50 19.82392
 2018-Nov-29 16:02 Nm  02 20 27.913301 +05 50 19.68207
 2018-Nov-29 16:03 Nm  02 20 27.900849 +05 50 19.54021
 2018-Nov-29 16:04 Nm  02 20 27.888398 +05 50 19.39836
 2018-Nov-29 16:05 Nm  02 20 27.875948 +05 50 19.25651
 2018-Nov-29 16:06 Nm  02 20 27.863499 +05 50 19.11466
 2018-Nov-29 16:07 Nm  02 20 27.851051 +05 50 18.97281
 2018-Nov-29 16:08 Nm  02 20 27.838604 +05 50 18.83097
